[{"OBJECT_NAME":"ISS (ZARYA)","OBJECT_ID":"1998-067A","EPOCH":"2026-03-23T10:53:20.760000","MEAN_MOTION":15.48489537,"ECCENTRICITY":0.0006177,"INCLINATION":51.6345,"RA_OF_ASC_NODE":4.3184,"ARG_OF_PERICENTER":224.029,"MEAN_ANOMALY":136.0206,"EPHEMERIS_TYPE":0,"CLASSIFICATION_TYPE":"U","NORAD_CAT_ID":25544,"ELEMENT_SET_NO":999,"REV_AT_EPOCH":55846,"BSTAR":0.00028089,"MEAN_MOTION_DOT":0.00014788,"MEAN_MOTION_DDOT":0},{"OBJECT_NAME":"POISK","OBJECT_ID":"2009-060A","EPOCH":"2026-03-23T10:53:20.760000","MEAN_MOTION":15.48489537,"ECCENTRICITY":0.0006177,"INCLINATION":51.6345,"RA_OF_ASC_NODE":4.3184,"ARG_OF_PERICENTER":224.029,"MEAN_ANOMALY":136.0206,"EPHEMERIS_TYPE":0,"CLASSIFICATION_TYPE":"U","NORAD_CAT_ID":36086,"ELEMENT_SET_NO":999,"REV_AT_EPOCH":55823,"BSTAR":0.00028089,"MEAN_MOTION_DOT":0.00014788,"MEAN_MOTION_DDOT":0},{"OBJECT_NAME":"CSS (TIANHE)","OBJECT_ID":"2021-035A","EPOCH":"2026-03-23T12:49:44.100480","MEAN_MOTION":15.61385941,"ECCENTRICITY":0.0005036,"INCLINATION":41.4661,"RA_OF_ASC_NODE":123.8751,"ARG_OF_PERICENTER":3.1602,"MEAN_ANOMALY":356.9268,"EPHEMERIS_TYPE":0,"CLASSIFICATION_TYPE":"U","NORAD_CAT_ID":48274,"ELEMENT_SET_NO":999,"REV_AT_EPOCH":27977,"BSTAR":0.00025938,"MEAN_MOTION_DOT":0.00022489,"MEAN_MOTION_DDOT":0},{"OBJECT_NAME":"ISS (NAUKA)","OBJECT_ID":"2021-066A","EPOCH":"2026-03-23T10:53:20.760000","MEAN_MOTION":15.48489537,"ECCENTRICITY":0.0006177,"INCLINATION":51.6345,"RA_OF_ASC_NODE":4.3184,"ARG_OF_PERICENTER":224.029,"MEAN_ANOMALY":136.0206,"EPHEMERIS_TYPE":0,"CLASSIFICATION_TYPE":"U","NORAD_CAT_ID":49044,"ELEMENT_SET_NO":999,"REV_AT_EPOCH":55827,"BSTAR":0.00028089,"MEAN_MOTION_DOT":0.00014788,"MEAN_MOTION_DDOT":0},{"OBJECT_NAME":"FREGAT DEB","OBJECT_ID":"2011-037PF","EPOCH":"2026-03-22T15:46:16.206528","MEAN_MOTION":12.40598329,"ECCENTRICITY":0.09634771,"INCLINATION":51.6477,"RA_OF_ASC_NODE":261.8223,"ARG_OF_PERICENTER":89.1012,"MEAN_ANOMALY":281.9939,"EPHEMERIS_TYPE":0,"CLASSIFICATION_TYPE":"U","NORAD_CAT_ID":49271,"ELEMENT_SET_NO":999,"REV_AT_EPOCH":21430,"BSTAR":0.024515082,"MEAN_MOTION_DOT":0.00017384,"MEAN_MOTION_DDOT":0},{"OBJECT_NAME":"CSS (WENTIAN)","OBJECT_ID":"2022-085A","EPOCH":"2026-03-23T12:49:44.100480","MEAN_MOTION":15.61385941,"ECCENTRICITY":0.0005036,"INCLINATION":41.4661,"RA_OF_ASC_NODE":123.8751,"ARG_OF_PERICENTER":3.1602,"MEAN_ANOMALY":356.9268,"EPHEMERIS_TYPE":0,"CLASSIFICATION_TYPE":"U","NORAD_CAT_ID":53239,"ELEMENT_SET_NO":999,"REV_AT_EPOCH":27982,"BSTAR":0.00025938,"MEAN_MOTION_DOT":0.00022489,"MEAN_MOTION_DDOT":0},{"OBJECT_NAME":"CSS (MENGTIAN)","OBJECT_ID":"2022-143A","EPOCH":"2026-03-23T12:49:44.100480","MEAN_MOTION":15.61385941,"ECCENTRICITY":0.0005036,"INCLINATION":41.4661,"RA_OF_ASC_NODE":123.8751,"ARG_OF_PERICENTER":3.1602,"MEAN_ANOMALY":356.9268,"EPHEMERIS_TYPE":0,"CLASSIFICATION_TYPE":"U","NORAD_CAT_ID":54216,"ELEMENT_SET_NO":999,"REV_AT_EPOCH":27982,"BSTAR":0.00025938,"MEAN_MOTION_DOT":0.00022489,"MEAN_MOTION_DDOT":0},{"OBJECT_NAME":"TIANZHOU-9","OBJECT_ID":"2025-149A","EPOCH":"2026-03-23T12:49:44.100480","MEAN_MOTION":15.61385941,"ECCENTRICITY":0.0005036,"INCLINATION":41.4661,"RA_OF_ASC_NODE":123.8751,"ARG_OF_PERICENTER":3.1602,"MEAN_ANOMALY":356.9268,"EPHEMERIS_TYPE":0,"CLASSIFICATION_TYPE":"U","NORAD_CAT_ID":64786,"ELEMENT_SET_NO":999,"REV_AT_EPOCH":27982,"BSTAR":0.00025938,"MEAN_MOTION_DOT":0.00022489,"MEAN_MOTION_DDOT":0},{"OBJECT_NAME":"PROGRESS-MS 32","OBJECT_ID":"2025-204A","EPOCH":"2026-03-23T04:41:36.951648","MEAN_MOTION":15.4848326,"ECCENTRICITY":0.00061926,"INCLINATION":51.6344,"RA_OF_ASC_NODE":5.5946,"ARG_OF_PERICENTER":222.9473,"MEAN_ANOMALY":137.1033,"EPHEMERIS_TYPE":0,"CLASSIFICATION_TYPE":"U","NORAD_CAT_ID":65586,"ELEMENT_SET_NO":999,"REV_AT_EPOCH":55450,"BSTAR":0.00032963634,"MEAN_MOTION_DOT":0.00017435,"MEAN_MOTION_DDOT":0},{"OBJECT_NAME":"YOTSUBA-KULOVER","OBJECT_ID":"1998-067XN","EPOCH":"2026-03-23T03:28:54.474816","MEAN_MOTION":15.87494566,"ECCENTRICITY":0.00051851,"INCLINATION":51.62,"RA_OF_ASC_NODE":347.1637,"ARG_OF_PERICENTER":167.699,"MEAN_ANOMALY":192.4142,"EPHEMERIS_TYPE":0,"CLASSIFICATION_TYPE":"U","NORAD_CAT_ID":65941,"ELEMENT_SET_NO":999,"REV_AT_EPOCH":2563,"BSTAR":0.0014014036,"MEAN_MOTION_DOT":0.00397077,"MEAN_MOTION_DDOT":0},{"OBJECT_NAME":"BOTAN","OBJECT_ID":"1998-067XQ","EPOCH":"2026-03-23T03:41:09.576384","MEAN_MOTION":15.86838816,"ECCENTRICITY":0.00057699,"INCLINATION":51.6227,"RA_OF_ASC_NODE":347.2432,"ARG_OF_PERICENTER":167.549,"MEAN_ANOMALY":192.5658,"EPHEMERIS_TYPE":0,"CLASSIFICATION_TYPE":"U","NORAD_CAT_ID":65943,"ELEMENT_SET_NO":999,"REV_AT_EPOCH":2563,"BSTAR":0.0012895036,"MEAN_MOTION_DOT":0.00351978,"MEAN_MOTION_DDOT":0},{"OBJECT_NAME":"HRC MONOBLOCK CAMERA","OBJECT_ID":"1998-067XR","EPOCH":"2026-03-23T03:03:47.706336","MEAN_MOTION":15.6363238,"ECCENTRICITY":0.00038999,"INCLINATION":51.6288,"RA_OF_ASC_NODE":357.6395,"ARG_OF_PERICENTER":154.3365,"MEAN_ANOMALY":205.7824,"EPHEMERIS_TYPE":0,"CLASSIFICATION_TYPE":"U","NORAD_CAT_ID":66052,"ELEMENT_SET_NO":999,"REV_AT_EPOCH":2449,"BSTAR":0.00063021366,"MEAN_MOTION_DOT":0.00059724,"MEAN_MOTION_DDOT":0},{"OBJECT_NAME":"HTV-X1","OBJECT_ID":"2025-241A","EPOCH":"2026-03-14T08:15:41.718240","MEAN_MOTION":15.22910005,"ECCENTRICITY":0.00057324,"INCLINATION":51.6357,"RA_OF_ASC_NODE":50.71,"ARG_OF_PERICENTER":187.3443,"MEAN_ANOMALY":172.7451,"EPHEMERIS_TYPE":0,"CLASSIFICATION_TYPE":"U","NORAD_CAT_ID":66174,"ELEMENT_SET_NO":999,"REV_AT_EPOCH":2166,"BSTAR":0.0005679389,"MEAN_MOTION_DOT":0.00013198,"MEAN_MOTION_DDOT":0},{"OBJECT_NAME":"SZ-21 MODULE","OBJECT_ID":"2025-246C","EPOCH":"2026-03-23T04:26:13.491168","MEAN_MOTION":15.69572241,"ECCENTRICITY":6.541e-5,"INCLINATION":41.4734,"RA_OF_ASC_NODE":120.2206,"ARG_OF_PERICENTER":218.7155,"MEAN_ANOMALY":141.364,"EPHEMERIS_TYPE":0,"CLASSIFICATION_TYPE":"U","NORAD_CAT_ID":66515,"ELEMENT_SET_NO":999,"REV_AT_EPOCH":2019,"BSTAR":0.00035990835,"MEAN_MOTION_DOT":0.00043706,"MEAN_MOTION_DDOT":0},{"OBJECT_NAME":"SHENZHOU-22","OBJECT_ID":"2025-272A","EPOCH":"2026-03-23T12:49:44.100480","MEAN_MOTION":15.61385941,"ECCENTRICITY":0.0005036,"INCLINATION":41.4661,"RA_OF_ASC_NODE":123.8751,"ARG_OF_PERICENTER":3.1602,"MEAN_ANOMALY":356.9268,"EPHEMERIS_TYPE":0,"CLASSIFICATION_TYPE":"U","NORAD_CAT_ID":66645,"ELEMENT_SET_NO":999,"REV_AT_EPOCH":27982,"BSTAR":0.00025938,"MEAN_MOTION_DOT":0.00022489,"MEAN_MOTION_DDOT":0},{"OBJECT_NAME":"SOYUZ-MS 28","OBJECT_ID":"2025-275A","EPOCH":"2026-03-23T10:53:20.760000","MEAN_MOTION":15.48489537,"ECCENTRICITY":0.0006177,"INCLINATION":51.6345,"RA_OF_ASC_NODE":4.3184,"ARG_OF_PERICENTER":224.029,"MEAN_ANOMALY":136.0206,"EPHEMERIS_TYPE":0,"CLASSIFICATION_TYPE":"U","NORAD_CAT_ID":66664,"ELEMENT_SET_NO":999,"REV_AT_EPOCH":55851,"BSTAR":0.00028089,"MEAN_MOTION_DOT":0.00014788,"MEAN_MOTION_DDOT":0}]
